{
  "type": "FeatureCollection",
  "features": [
    {
      "type": "Feature",
      "properties": {
        "norad_id": 37484,
        "name": "COSMOS 2251 DEB",
        "group": "cosmos-2251-debris",
        "lat": 23.85922337992785,
        "lon": -144.958167880269,
        "alt_km": 774.3361556128739,
        "timestamp": "2025-12-13T03:42:11.669792+00:00",
        "meta_object_name": "COSMOS 2251 DEB",
        "meta_object_id": "1993-036BLM",
        "meta_epoch": "2025-12-08T23:58:05.079360",
        "meta_mean_motion": 14.41757676,
        "meta_eccentricity": 0.0040001,
        "meta_inclination": 73.8236,
        "meta_ra_of_asc_node": 215.4631,
        "meta_arg_of_pericenter": 250.9229,
        "meta_mean_anomaly": 173.1342,
        "meta_ephemeris_type": 0,
        "meta_classification_type": "U",
        "meta_norad_cat_id": 37484,
        "meta_element_set_no": 999,
        "meta_rev_at_epoch": 65325,
        "meta_bstar": 0.00081064,
        "meta_mean_motion_dot": 2.644e-05,
        "meta_mean_motion_ddot": 0,
        "tle_line1": "1 37484U 93036BLM 25342.99866990  .00002644  00000+0  81064-3 0  9996",
        "tle_line2": "2 37484  73.8236 215.4631 0040001 250.9229 173.1342 14.41757676653253"
      },
      "geometry": {
        "type": "Point",
        "coordinates": [
          -144.958167880269,
          23.85922337992785
        ]
      }
    },
    {
      "type": "Feature",
      "properties": {
        "norad_id": 37486,
        "name": "COSMOS 2251 DEB",
        "group": "cosmos-2251-debris",
        "lat": -55.251503078376686,
        "lon": -41.18558302764386,
        "alt_km": 888.5357338164013,
        "timestamp": "2025-12-13T03:42:11.669802+00:00",
        "meta_object_name": "COSMOS 2251 DEB",
        "meta_object_id": "1993-036BLP",
        "meta_epoch": "2025-12-12T01:37:42.055104",
        "meta_mean_motion": 14.13312304,
        "meta_eccentricity": 0.02295182,
        "meta_inclination": 73.691,
        "meta_ra_of_asc_node": 115.8133,
        "meta_arg_of_pericenter": 344.0125,
        "meta_mean_anomaly": 131.6797,
        "meta_ephemeris_type": 0,
        "meta_classification_type": "U",
        "meta_norad_cat_id": 37486,
        "meta_element_set_no": 999,
        "meta_rev_at_epoch": 63360,
        "meta_bstar": 0.0029312521,
        "meta_mean_motion_dot": 7.046e-05,
        "meta_mean_motion_ddot": 0,
        "tle_line1": "1 37486U 93036BLP 25346.06784786  .00007046  00000+0  29313-2 0  9991",
        "tle_line2": "2 37486  73.6910 115.8133 0229518 344.0125 131.6797 14.13312304633608"
      },
      "geometry": {
        "type": "Point",
        "coordinates": [
          -41.18558302764386,
          -55.251503078376686
        ]
      }
    },
    {
      "type": "Feature",
      "properties": {
        "norad_id": 37487,
        "name": "COSMOS 2251 DEB",
        "group": "cosmos-2251-debris",
        "lat": 68.42183853085469,
        "lon": -121.83360525666238,
        "alt_km": 606.608402973905,
        "timestamp": "2025-12-13T03:42:11.669812+00:00",
        "meta_object_name": "COSMOS 2251 DEB",
        "meta_object_id": "1993-036BLQ",
        "meta_epoch": "2025-12-12T06:17:24.389376",
        "meta_mean_motion": 14.80982589,
        "meta_eccentricity": 0.00255931,
        "meta_inclination": 73.9026,
        "meta_ra_of_asc_node": 193.0379,
        "meta_arg_of_pericenter": 31.2136,
        "meta_mean_anomaly": 329.0553,
        "meta_ephemeris_type": 0,
        "meta_classification_type": "U",
        "meta_norad_cat_id": 37487,
        "meta_element_set_no": 999,
        "meta_rev_at_epoch": 81238,
        "meta_bstar": 0.0042593386,
        "meta_mean_motion_dot": 0.00033302,
        "meta_mean_motion_ddot": 0,
        "tle_line1": "1 37487U 93036BLQ 25346.26208784  .00033302  00000+0  42593-2 0  9992",
        "tle_line2": "2 37487  73.9026 193.0379 0025593  31.2136 329.0553 14.80982589812383"
      },
      "geometry": {
        "type": "Point",
        "coordinates": [
          -121.83360525666238,
          68.42183853085469
        ]
      }
    },
    {
      "type": "Feature",
      "properties": {
        "norad_id": 37491,
        "name": "COSMOS 2251 DEB",
        "group": "cosmos-2251-debris",
        "lat": 38.22331354633752,
        "lon": -73.45931596386939,
        "alt_km": 1135.0628007368432,
        "timestamp": "2025-12-13T03:42:11.669822+00:00",
        "meta_object_name": "COSMOS 2251 DEB",
        "meta_object_id": "1993-036BLU",
        "meta_epoch": "2025-12-11T13:05:52.435392",
        "meta_mean_motion": 13.75285056,
        "meta_eccentricity": 0.03174282,
        "meta_inclination": 73.9058,
        "meta_ra_of_asc_node": 276.0936,
        "meta_arg_of_pericenter": 269.3893,
        "meta_mean_anomaly": 87.0852,
        "meta_ephemeris_type": 0,
        "meta_classification_type": "U",
        "meta_norad_cat_id": 37491,
        "meta_element_set_no": 999,
        "meta_rev_at_epoch": 55730,
        "meta_bstar": 0.0017999134,
        "meta_mean_motion_dot": 2.468e-05,
        "meta_mean_motion_ddot": 0,
        "tle_line1": "1 37491U 93036BLU 25345.54574578  .00002468  00000+0  17999-2 0  9995",
        "tle_line2": "2 37491  73.9058 276.0936 0317428 269.3893  87.0852 13.75285056557308"
      },
      "geometry": {
        "type": "Point",
        "coordinates": [
          -73.45931596386939,
          38.22331354633752
        ]
      }
    },
    {
      "type": "Feature",
      "properties": {
        "norad_id": 37498,
        "name": "COSMOS 2251 DEB",
        "group": "cosmos-2251-debris",
        "lat": -22.169135025776594,
        "lon": 9.799112909597415,
        "alt_km": 708.8094832704855,
        "timestamp": "2025-12-13T03:42:11.669832+00:00",
        "meta_object_name": "COSMOS 2251 DEB",
        "meta_object_id": "1993-036BMB",
        "meta_epoch": "2025-12-10T07:06:15.238080",
        "meta_mean_motion": 14.54745919,
        "meta_eccentricity": 0.0012071,
        "meta_inclination": 74.0358,
        "meta_ra_of_asc_node": 188.5072,
        "meta_arg_of_pericenter": 251.507,
        "meta_mean_anomaly": 108.4781,
        "meta_ephemeris_type": 0,
        "meta_classification_type": "U",
        "meta_norad_cat_id": 37498,
        "meta_element_set_no": 999,
        "meta_rev_at_epoch": 65319,
        "meta_bstar": 0.0008921,
        "meta_mean_motion_dot": 3.798e-05,
        "meta_mean_motion_ddot": 0,
        "tle_line1": "1 37498U 93036BMB 25344.29600970  .00003798  00000+0  89210-3 0  9992",
        "tle_line2": "2 37498  74.0358 188.5072 0012071 251.5070 108.4781 14.54745919653194"
      },
      "geometry": {
        "type": "Point",
        "coordinates": [
          9.799112909597415,
          -22.169135025776594
        ]
      }
    },
    {
      "type": "Feature",
      "properties": {
        "norad_id": 37499,
        "name": "COSMOS 2251 DEB",
        "group": "cosmos-2251-debris",
        "lat": 23.88025265451841,
        "lon": -31.286712341285096,
        "alt_km": 757.5827338419404,
        "timestamp": "2025-12-13T03:42:11.669842+00:00",
        "meta_object_name": "COSMOS 2251 DEB",
        "meta_object_id": "1993-036BMC",
        "meta_epoch": "2025-12-10T05:17:01.570848",
        "meta_mean_motion": 14.34338479,
        "meta_eccentricity": 0.0026827,
        "meta_inclination": 74.0377,
        "meta_ra_of_asc_node": 326.8027,
        "meta_arg_of_pericenter": 43.5901,
        "meta_mean_anomaly": 316.7364,
        "meta_ephemeris_type": 0,
        "meta_classification_type": "U",
        "meta_norad_cat_id": 37499,
        "meta_element_set_no": 999,
        "meta_rev_at_epoch": 85113,
        "meta_bstar": 0.00027087,
        "meta_mean_motion_dot": 7.38e-06,
        "meta_mean_motion_ddot": 0,
        "tle_line1": "1 37499U 93036BMC 25344.22015707  .00000738  00000+0  27087-3 0  9999",
        "tle_line2": "2 37499  74.0377 326.8027 0026827  43.5901 316.7364 14.34338479851131"
      },
      "geometry": {
        "type": "Point",
        "coordinates": [
          -31.286712341285096,
          23.88025265451841
        ]
      }
    },
    {
      "type": "Feature",
      "properties": {
        "norad_id": 37528,
        "name": "COSMOS 2251 DEB",
        "group": "cosmos-2251-debris",
        "lat": -23.666350095904846,
        "lon": -51.43472524927133,
        "alt_km": 722.6292364236351,
        "timestamp": "2025-12-13T03:42:11.669852+00:00",
        "meta_object_name": "COSMOS 2251 DEB",
        "meta_object_id": "1993-036BNH",
        "meta_epoch": "2025-12-11T16:00:02.560320",
        "meta_mean_motion": 14.50514088,
        "meta_eccentricity": 0.00210781,
        "meta_inclination": 74.0369,
        "meta_ra_of_asc_node": 124.1531,
        "meta_arg_of_pericenter": 272.3506,
        "meta_mean_anomaly": 87.5241,
        "meta_ephemeris_type": 0,
        "meta_classification_type": "U",
        "meta_norad_cat_id": 37528,
        "meta_element_set_no": 999,
        "meta_rev_at_epoch": 85915,
        "meta_bstar": 0.00080165521,
        "meta_mean_motion_dot": 3.121e-05,
        "meta_mean_motion_ddot": 0,
        "tle_line1": "1 37528U 93036BNH 25345.66669630  .00003121  00000+0  80166-3 0  9997",
        "tle_line2": "2 37528  74.0369 124.1531 0021078 272.3506  87.5241 14.50514088859157"
      },
      "geometry": {
        "type": "Point",
        "coordinates": [
          -51.43472524927133,
          -23.666350095904846
        ]
      }
    }
  ]
}